,index,title,address.street-address,location.latitude,location.longitude,Type of place,name,address,longitude,latitude,distance
0,0,Centro Superior de Diseño y Moda de Madrid,CARRETERA VALENCIA 7 Bloque I,40.388857066045915,-3.6286523028588005,University,221 - Pavones,Calle Hacienda de Pavones nº 342,-3.634587, 40.400368,1442.281843206676
1,264,Centro Superior de Estudios Universitarios La Salle,CALLE LA SALLE 10,40.46627682124755,-3.7820191806815187,University,261 - Facultad Derecho,Avenida Complutense nº 23,-3.72937, 40.45109,6111.957433408611
2,528,Centro de Enseñanza Superior Cardenal Cisneros,CALLE GENERAL DIAZ PORLIER 58,40.430655746270524,-3.676645132506573,University,144 - Juan Bravo 50,Calle Juan Bravo nº 50,-3.6758555, 40.4323655,209.72282767013124
3,792,Centro de Enseñanza Superior Villanueva,CALLE COSTA BRAVA 2 y 6,40.49594165711777,-3.702048289834191,University,217 - Pedro Rico,Calle Pedro Rico nº 4,-3.688463, 40.481086,2243.082119041258
4,1056,Centro de Enseñanza Superior en Humanidades y Ciencias de la Educación Don Bosco,CALLE MARIA AUXILIADORA 9,40.4578663330372,-3.7154022232737973,University,239 - Francos Rodríguez,Calle Francos Rodríguez nº 62,-3.708002730875242, 40.45673408797698,835.006656205909
5,1320,Colegio Mayor Alcalá,CALLE DON RAMON MENENDEZ PIDAL 2,40.44764820463789,-3.719503495059197,University,256 - Reina Victoria,Calle Beatriz de Bobadilla frente al nº 2,-3.71383, 40.44635,649.1912525038299
6,1584,Colegio Mayor Alcor,CALLE GENERAL AMPUDIA 7,40.443245742864015,-3.715255918766616,University,203 - San Francisco de Sales,Calle General Ampudia nº 2,-3.7144722, 40.44175,188.06244738999055
7,1848,Colegio Mayor Antonio de Nebrija,AVENIDA SENECA 8,40.43571333918665,-3.7284677239467596,University,257 - INEF,Avenida Juan de Herrera frente a la calle Paul Guinard,-3.72997, 40.43896,398.38114362761735
8,2112,Colegio Mayor Aquinas (Santo Tomás de Aquino),CALLE LEONARDO PRIETO CASTRO 6,40.45204759324346,-3.7218395787782304,University,260 - Facultad Biología,Calle José Antonio Novais frente al nº 12,-3.7272945, 40.4483322,735.7739235278866
9,2376,Colegio Mayor Argentino Nuestra Señora de Luján,CALLE MARTIN FIERRO 3,40.43610678975899,-3.731701576349752,University,257 - INEF,Avenida Juan de Herrera frente a la calle Paul Guinard,-3.72997, 40.43896,371.74567552435343
10,2640,Colegio Mayor Barberán y Collar,AVENIDA SENECA 16,40.434545397562495,-3.7331585246591557,University,257 - INEF,Avenida Juan de Herrera frente a la calle Paul Guinard,-3.72997, 40.43896,606.6519056768285
11,2904,Colegio Mayor Casa Do Brasil,AVENIDA MEMORIA 3,40.43853583084271,-3.7252915757655174,University,257 - INEF,Avenida Juan de Herrera frente a la calle Paul Guinard,-3.72997, 40.43896,524.0355939620541
12,3168,Colegio Mayor Chaminade,PASEO JUAN XXIII 9,40.44734637151868,-3.7177116209853853,University,256 - Reina Victoria,Calle Beatriz de Bobadilla frente al nº 2,-3.71383, 40.44635,446.9901752064536
13,3432,Colegio Mayor Diego de Covarrubias,AVENIDA SENECA 10,40.43543488509487,-3.7297224981364576,University,257 - INEF,Avenida Juan de Herrera frente a la calle Paul Guinard,-3.72997, 40.43896,393.3841266394772
14,3696,Colegio Mayor Elías Ahúja,CALLE RECTOR ROYO-VILLANOVA 4,40.45084427289562,-3.7153019237576634,University,256 - Reina Victoria,Calle Beatriz de Bobadilla frente al nº 2,-3.71383, 40.44635,526.556256753516
15,3960,Colegio Mayor Fundación SEPI,AVENIDA GREGORIO DEL AMO 2,40.446907485706866,-3.7188228498669362,University,256 - Reina Victoria,Calle Beatriz de Bobadilla frente al nº 2,-3.71383, 40.44635,560.4194195340286
16,4224,Colegio Mayor Jaime del Amo,AVENIDA GREGORIO DEL AMO 5,40.44582638073112,-3.72226686792607,University,258 - Ciudad Universitaria 1,Avenida de la Complutense (Metro Ciudad Universitaria),-3.72699, 40.44375,575.3599476486814
17,4488,Colegio Mayor Jorge Juan,AVENIDA SENECA 14,40.4349249042721,-3.7317433524081887,University,257 - INEF,Avenida Juan de Herrera frente a la calle Paul Guinard,-3.72997, 40.43896,490.8185814858734
18,4752,Colegio Mayor Juan Luis Vives,CALLE FRANCISCO SUAREZ 7,40.46502029145429,-3.6845899986944497,University,255 - López Pozas,Calle General López Pozas nº 2,-3.68514, 40.46361,168.55543088062046
19,5016,Colegio Mayor Juan XXIII Roncalli,CALLE RAMIRO DE MAEZTU 3,40.44903948047641,-3.7180373012857046,University,256 - Reina Victoria,Calle Beatriz de Bobadilla frente al nº 2,-3.71383, 40.44635,556.7015760121665
20,5280,Colegio Mayor Loyola,PASEO JUAN XXIII 17,40.45000544910973,-3.7153887868377877,University,256 - Reina Victoria,Calle Beatriz de Bobadilla frente al nº 2,-3.71383, 40.44635,442.51935789293634
21,5544,Colegio Mayor Mara,PASEO JUAN XXIII 15,40.44958307800659,-3.7160919870624136,University,256 - Reina Victoria,Calle Beatriz de Bobadilla frente al nº 2,-3.71383, 40.44635,439.5491988349685
22,5808,Colegio Mayor Marqués de la Ensenada,AVENIDA SENECA 18,40.43444043139228,-3.733543743924688,University,257 - INEF,Avenida Juan de Herrera frente a la calle Paul Guinard,-3.72997, 40.43896,641.923419401525
23,6072,Colegio Mayor Mater Salvatoris,CALLE VALDESQUI 3,40.46404258469897,-3.7710701028693103,University,261 - Facultad Derecho,Avenida Complutense nº 23,-3.72937, 40.45109,4870.325301028115
24,6336,Colegio Mayor Moncloa,AVENIDA MONCLOA 3,40.44587627267912,-3.715446297968531,University,256 - Reina Victoria,Calle Beatriz de Bobadilla frente al nº 2,-3.71383, 40.44635,187.85797365322748
25,6600,Colegio Mayor Montalbán,CALLE DIEGO DE LEON 14,40.434842602381124,-3.684160626397251,University,190 - Velázquez-Diego de León,Calle Velázquez nº 91,-3.6835833, 40.4343333,85.8009990825241
26,6864,Colegio Mayor Méndel,CALLE RECTOR ROYO-VILLANOVA 6,40.450938406912854,-3.716699793684652,University,256 - Reina Victoria,Calle Beatriz de Bobadilla frente al nº 2,-3.71383, 40.44635,602.8124624031059
27,7128,Colegio Mayor Nuestra Señora de Guadalupe,AVENIDA SENECA 4,40.4365837060789,-3.7255298689626724,University,112 - Paseo de Moret,Paseo de Moret nº 11,-3.7246532, 40.4325991,454.2175155995816
28,7392,Colegio Mayor Nuestra Señora de África,CALLE RAMIRO DE MAEZTU 8,40.44834777034175,-3.721755062437034,University,260 - Facultad Biología,Calle José Antonio Novais frente al nº 12,-3.7272945, 40.4483322,617.9549745998536
29,7656,Colegio Mayor Padre Poveda,CALLE ISAAC PERAL 60,40.442963646266804,-3.7190211475612625,University,244 - Hospital Clínico,Calle Isaac Peral nº 44,-3.71757, 40.44003,364.4927789132137
30,7920,Colegio Mayor Pío XII,PASEO JUAN XXIII 3,40.44491451422515,-3.7200680644720574,University,244 - Hospital Clínico,Calle Isaac Peral nº 44,-3.71757, 40.44003,610.9926014698011
31,8184,Colegio Mayor Santa María de Europa,CALLE CEA BERMUDEZ 17,40.438685506832634,-3.7091237782947606,University,245 - Galileo,Calle Galileo nº 63,-3.71019, 40.4364,280.85069536961316
32,8448,Colegio Mayor Santa María del Pino,PASEO SAN FRANCISCO DE SALES 13,40.44040601048909,-3.7162462206445745,University,244 - Hospital Clínico,Calle Isaac Peral nº 44,-3.71757, 40.44003,153.49061433564665
33,8712,Colegio Mayor Santa Mónica,PASEO JUAN XXIII 19,40.45035239946326,-3.7146291167019014,University,256 - Reina Victoria,Calle Beatriz de Bobadilla frente al nº 2,-3.71383, 40.44635,454.3755634961161
34,8976,Colegio Mayor Santa Teresa de Jesús,AVENIDA SENECA 12,40.43522158947955,-3.730558119606541,University,257 - INEF,Avenida Juan de Herrera frente a la calle Paul Guinard,-3.72997, 40.43896,421.2978475045469
35,9240,Colegio Mayor Somosierra,CALLE VICTOR DE LA SERNA 13,40.45338463229645,-3.672607650534373,University,160 - Colombia,Calle Colombia nº 7,-3.6763439, 40.4572466,598.7697980493072
36,9504,Colegio Mayor Universitario Isabel de España,CALLE DON RAMON MENENDEZ PIDAL 5,40.44841681111204,-3.7199730138128735,University,256 - Reina Victoria,Calle Beatriz de Bobadilla frente al nº 2,-3.71383, 40.44635,722.8706165866026
37,9768,Colegio Mayor Universitario San Agustín,TRAVESIA ANTONIO NEBRIJA 4,40.43672037843154,-3.7276073977792428,University,257 - INEF,Avenida Juan de Herrera frente a la calle Paul Guinard,-3.72997, 40.43896,362.7974147850303
38,10032,Colegio Mayor Universitario San Pablo,CALLE ISAAC PERAL 58,40.442163372591814,-3.7186016905372776,University,244 - Hospital Clínico,Calle Isaac Peral nº 44,-3.71757, 40.44003,263.90371555375475
39,10296,Colegio Mayor Universitario Santillana,CALLE MARBELLA 60,40.49465964836949,-3.7062096187224456,University,217 - Pedro Rico,Calle Pedro Rico nº 4,-3.688463, 40.481086,2490.4276085789375
40,10560,Colegio Mayor Vedruna,GLORIETA PRESIDENTE GARCIA MORENO 2,40.445605369642564,-3.714995329761434,University,256 - Reina Victoria,Calle Beatriz de Bobadilla frente al nº 2,-3.71383, 40.44635,154.17613551130566
41,10824,Colegio Mayor Ximénez de Cisneros,AVENIDA SENECA 8,40.43571333918665,-3.7284677239467596,University,257 - INEF,Avenida Juan de Herrera frente a la calle Paul Guinard,-3.72997, 40.43896,398.38114362761735
42,11088,Colegio Mayor Zurbarán,CALLE VICTOR DE LA SERNA 13,40.45338463229645,-3.672607650534373,University,160 - Colombia,Calle Colombia nº 7,-3.6763439, 40.4572466,598.7697980493072
43,11352,Colegio Mayor África,CALLE RAMIRO DE MAEZTU 2,40.44925799673555,-3.7171006978828465,University,256 - Reina Victoria,Calle Beatriz de Bobadilla frente al nº 2,-3.71383, 40.44635,487.7651270189221
44,11616,Colegio Universitario de Estudios Financieros,CALLE PIRINEOS 55,40.45357920636982,-3.718717277671818,University,237 - Pablo Iglesias,Calle Francisco Balseiro nº 1,-3.710525, 40.451333,947.4704091056157
45,11880,ESERP Madrid Business School,CALLE COSTA RICA 9,40.45873666000346,-3.674947232210818,University,160 - Colombia,Calle Colombia nº 7,-3.6763439, 40.4572466,227.56627829932313
46,12144,Escuela Superior de Diseño,CALLE CAMINO DE LOS VINATEROS 106,40.409090881121266,-3.6488257296912585,University,219 - Marroquina,Calle Camino de los Vinateros nº 108,-3.646697, 40.408264,254.66726285012967
47,12408,Escuela Universitaria de Enfermería. Fundación Jiménez Díaz,AVENIDA REYES CATOLICOS 2,40.43856720968711,-3.718883399803211,University,244 - Hospital Clínico,Calle Isaac Peral nº 44,-3.71757, 40.44003,219.04948439817161
48,12672,Escuela Universitaria de Magisterio ESCUNI,AVENIDA NUESTRA SEÑORA DE FATIMA 102,40.378328008655004,-3.7488801858007923,University,224 - Caramuel,Calle Caramuel nº 51,-3.728533714316331, 40.40913630273305,4112.645210260958
49,12936,Escuela de Práctica Jurídica,CALLE AMANIEL 2,40.42503902541332,-3.7091208409661056,University,116b - Plaza de España B,Calle Princesa nº 5,-3.710537, 40.423681,218.65627229193623
50,13200,IADE Escuela de Diseño,CALLE CLAUDIO COELLO 48,40.427176334657716,-3.686188531537097,University,92 - Claudio Coello,Calle Claudio Coello nº 45,-3.6865463, 40.4262945,105.96785015540695
51,13464,Instituto de Estudios Bursátiles (IEB),CALLE ALFONSO XI 6,40.418666903378885,-3.690642533944984,University,65 - Antonio Maura,Calle Antonio Maura nº 15,-3.6894193, 40.4166834,259.56331210573114
52,13728,Instituto de Salud Carlos III. Escuela Nacional de Medicina del Trabajo,"CALLE SINESIO DELGADO 8 entrada por Avenida Monforte de Lemos, 5 o Melchor Fernández Almagro, sin número",40.47467830039234,-3.693859963015047,University,248 - Torre Cepsa,Calle Sinesio Delgado nº 2,-3.68797, 40.47435,658.0460983033292
53,13992,Residencia Universitaria Augustinus Nebrija,CALLE CEA BERMUDEZ 59,40.43894007585974,-3.715531702478502,University,128 - Cea Bermúdez,Calle Cea Bermúdez nº 59,-3.7154329, 40.438994,12.55045617253289
54,14256,Residencia Universitaria Erasmo,CALLE ERASMO DE ROTTERDAM 5 y 7,40.548027795931425,-3.6989970922329403,University,217 - Pedro Rico,Calle Pedro Rico nº 4,-3.688463, 40.481086,7544.007492630217
55,14520,Residencia Universitaria Gómez Pardo,CALLE CRISTOBAL BORDIU 30 BIS,40.443040030471,-3.7009070820260876,University,130 - Santa Engracia 127,Calle Santa Engracia nº 127,-3.70164, 40.44156,183.92684679654988
56,14784,Residencia Universitaria José Pérez de Vargas,AVENIDA DAROCA 321,40.406276896821566,-3.6127600502928536,University,221 - Pavones,Calle Hacienda de Pavones nº 342,-3.634587, 40.400368,2521.9246394792895
57,15048,Residencia Universitaria Nebrija - Corazonistas,CALLE TUTOR 36,40.42951144473094,-3.7166919067720485,University,114 - Quintana,Calle Quintana nº 11,-3.7174158, 40.4277456,212.5135639858302
58,15312,Residencia Universitaria Nebrija Chamberí,CALLE NICASIO GALLEGO 12,40.42942134889185,-3.698902512090178,University,124 - Manuel Silvela,Calle Manuel Silvela nº 20,-3.6993465, 40.4309524,177.4862375344158
59,15576,Residencia Universitaria Tagaste,CALLE GENERAL PARDI&amp;Ntilde;AS 34 BIS,40.42668459434315,-3.6784079436749755,University,91 - Príncipe de Vergara,Calle Hermosilla nº 70,-3.6787441, 40.426134,71.8525953534481
60,15840,Residencia de Estudiantes Ciudad Escolar. Comunidad de Madrid.,"CARRETERA COLMENAR VIEJO  Km. 12,800",40.52514591809954,-3.6853908329744214,University,217 - Pedro Rico,Calle Pedro Rico nº 4,-3.688463, 40.481086,4916.685622489776
61,16104,Residencia de estudiantes Palacio de Barradas,CALLE SAN BERNARDO 63,40.42645825034476,-3.706923606244769,University,15 - San Vicente Ferrer,Calle San Vicente Ferrer nº 64,-3.7074453, 40.4262383,63.137399667219704
62,16368,Saint Louis University Madrid Campus,AVENIDA VALLE 34,40.443618892912994,-3.7174660906866817,University,203 - San Francisco de Sales,Calle General Ampudia nº 2,-3.7144722, 40.44175,393.4785887411025
63,16632,Schiller International University Madrid Campus,PASEO RECOLETOS 35,40.4240226588365,-3.691521424899909,University,94 - Biblioteca Nacional,Paseo de Recoletos nº 20,-3.690756, 40.4232153,123.96722863564753
64,16896,Suffolk University Madrid Campus,CALLE VIÑA 3,40.444012178441184,-3.7186194926544465,University,244 - Hospital Clínico,Calle Isaac Peral nº 44,-3.71757, 40.44003,458.49350009226765
65,17160,Universidad Abierta de Cataluña (Universitat Oberta de Catalunya). UOC,CALLE LUCHANA 23 PLANTA 6,40.43111177402823,-3.6998006857674284,University,124 - Manuel Silvela,Calle Manuel Silvela nº 20,-3.6993465, 40.4309524,53.68176751785779
66,17424,Universidad Antonio de Nebrija. Campus de Madrid-Princesa,CALLE SANTA CRUZ DE MARCENADO 27,40.42953569046731,-3.7129892993492413,University,57 - Santa Cruz del Marcenado,Calle Santa Cruz del Marcenado nº 24,-3.7126299, 40.4295658,40.23216256722205
67,17688,Universidad Antonio de Nebrija. Edificio Joaquín María López,CALLE JOAQUIN MARIA LOPEZ 62,40.43787436557181,-3.716177496227913,University,128 - Cea Bermúdez,Calle Cea Bermúdez nº 59,-3.7154329, 40.438994,149.77925621821547
68,17952,Universidad Autónoma de Madrid. Escuela Politécnica Superior,CALLE FRANCISCO TOMAS Y VALIENTE 11,40.54694594124175,-3.6915841963667,University,217 - Pedro Rico,Calle Pedro Rico nº 4,-3.688463, 40.481086,7339.757784896112
69,18216,Universidad Autónoma de Madrid. Escuela Universitaria de Enfermería de la Cruz Roja,AVENIDA REINA VICTORIA 28,40.447245864225934,-3.7096954577510513,University,237 - Pablo Iglesias,Calle Francisco Balseiro nº 1,-3.710525, 40.451333,464.2932007659881
70,18480,Universidad Autónoma de Madrid. Escuela Universitaria de Fisioterapia de la ONCE,CALLE NURIA 42,40.493908768303584,-3.708268358490922,University,217 - Pedro Rico,Calle Pedro Rico nº 4,-3.688463, 40.481086,2630.3325741366302
71,18744,Universidad Autónoma de Madrid. Facultad de Ciencias,CALLE FRANCISCO TOMAS Y VALIENTE 7,40.54537941407227,-3.6951833197962536,University,217 - Pedro Rico,Calle Pedro Rico nº 4,-3.688463, 40.481086,7196.263802225133
72,19008,Universidad Autónoma de Madrid. Facultad de Ciencias Económicas y Empresariales,CALLE FRANCISCO TOMAS Y VALIENTE 5,40.54487238078954,-3.6966067777305702,University,217 - Pedro Rico,Calle Pedro Rico nº 4,-3.688463, 40.481086,7158.544132095207
73,19272,Universidad Autónoma de Madrid. Facultad de Derecho,CALLE KELSEN 1,40.541584341026066,-3.6911146791930514,University,217 - Pedro Rico,Calle Pedro Rico nº 4,-3.688463, 40.481086,6741.137328083893
74,19536,Universidad Autónoma de Madrid. Facultad de Filosofía y Letras,CALLE FRANCISCO TOMAS Y VALIENTE 1,40.544325916954385,-3.698365543129191,University,217 - Pedro Rico,Calle Pedro Rico nº 4,-3.688463, 40.481086,7125.974469338799
75,19800,Universidad Autónoma de Madrid. Facultad de Formación de Profesorado y Educación,CALLE FRANCISCO TOMAS Y VALIENTE 3,40.54451020545557,-3.697774510862534,University,217 - Pedro Rico,Calle Pedro Rico nº 4,-3.688463, 40.481086,7136.348051559564
76,20064,Universidad Autónoma de Madrid. Facultad de Medicina,CALLE ARZOBISPO MORCILLO 4,40.4808908842711,-3.6909106726884695,University,217 - Pedro Rico,Calle Pedro Rico nº 4,-3.688463, 40.481086,273.9021821403148
77,20328,Universidad Autónoma de Madrid. Facultad de Psicología,CALLE IVAN PAVLOV 6,40.543827683418954,-3.6924908365072424,University,217 - Pedro Rico,Calle Pedro Rico nº 4,-3.688463, 40.481086,6998.809454792448
78,20592,Universidad CEU San Pablo. Campus de Moncloa,CALLE JULIAN ROMEA 23,40.4426848456701,-3.717392603409244,University,244 - Hospital Clínico,Calle Isaac Peral nº 44,-3.71757, 40.44003,296.19788222454605
79,20856,Universidad Camilo José Cela Campus Almagro. Escuela de Postgrado,CALLE ALMAGRO 5,40.4285833900725,-3.694977051764264,University,8 - Alonso Martínez,Plaza de Alonso Martínez nº 5,-3.6954403, 40.4278682,94.91518206915627
80,21120,Universidad Camilo José Cela Campus Castellana,CALLE JUAN HURTADO DE MENDOZA 4,40.460387720713776,-3.6887258017247517,University,157 - Castellana 164,Paseo de la Castellana nº 164,-3.6894151, 40.4591366,159.08993685837706
81,21384,Universidad Complutense de Madrid. Centro Complutense para la Enseñanza del Español,PLAZA MENÉNDEZ PELAYO ,40.44898329648031,-3.730509235855083,University,261 - Facultad Derecho,Avenida Complutense nº 23,-3.72937, 40.45109,266.73910608316356
82,21648,Universidad Complutense de Madrid. Centro Superior de Idiomas Modernos,CALLE PROFESOR ARANGUREN  Edificio Multiusos 2ª planta,40.449963578914904,-3.732775678645041,University,261 - Facultad Derecho,Avenida Complutense nº 23,-3.72937, 40.45109,400.08162303494356
83,21912,Universidad Complutense de Madrid. Escuela Profesional de Medicina Legal y Forense,AVENIDA COMPLUTENSE ,40.444209689370524,-3.724525000209294,University,258 - Ciudad Universitaria 1,Avenida de la Complutense (Metro Ciudad Universitaria),-3.72699, 40.44375,279.70457123320534
84,22176,Universidad Complutense de Madrid. Escuela Profesional de Relaciones Laborales,CALLE SAN BERNARDO 49,40.424857288787685,-3.7075073443351645,University,15 - San Vicente Ferrer,Calle San Vicente Ferrer nº 64,-3.7074453, 40.4262383,153.8891862558123
85,22440,Universidad Complutense de Madrid. Facultad de Bellas Artes,CALLE PINTOR EL GRECO 2,40.43924887699439,-3.7339441902245993,University,257 - INEF,Avenida Juan de Herrera frente a la calle Paul Guinard,-3.72997, 40.43896,444.50969182875997
86,22704,Universidad Complutense de Madrid. Facultad de Ciencias Biológicas,CALLE JOSE ANTONIO NOVAIS 12,40.44860689706268,-3.7257076188100315,University,260 - Facultad Biología,Calle José Antonio Novais frente al nº 12,-3.7272945, 40.4483322,179.64678811466572
87,22968,Universidad Complutense de Madrid. Facultad de Ciencias Físicas,PLAZA CIENCIAS 1,40.450777002534814,-3.7260915899587603,University,260 - Facultad Biología,Calle José Antonio Novais frente al nº 12,-3.7272945, 40.4483322,303.43886043658716
88,23232,Universidad Complutense de Madrid. Facultad de Ciencias Geológicas,CALLE JOSE ANTONIO NOVAIS 12,40.44860689706268,-3.7257076188100315,University,260 - Facultad Biología,Calle José Antonio Novais frente al nº 12,-3.7272945, 40.4483322,179.64678811466572
89,23496,Universidad Complutense de Madrid. Facultad de Ciencias Matemáticas,PLAZA CIENCIAS 3,40.44945850908754,-3.7259383636708434,University,260 - Facultad Biología,Calle José Antonio Novais frente al nº 12,-3.7272945, 40.4483322,196.48694574038643
90,23760,Universidad Complutense de Madrid. Facultad de Ciencias Químicas,PLAZA CIENCIAS 2,40.450293078267315,-3.7249357757330084,University,260 - Facultad Biología,Calle José Antonio Novais frente al nº 12,-3.7272945, 40.4483322,341.88352835958943
91,24024,Universidad Complutense de Madrid. Facultad de Ciencias de la Documentación,CALLE SANTISIMA TRINIDAD 37,40.438157283286685,-3.701196886214348,University,201 - Canal,Calle José Abascal frente al nº 2,-3.7038333, 40.4386944,300.1145029081858
92,24288,Universidad Complutense de Madrid. Facultad de Ciencias de la Información,AVENIDA COMPLUTENSE 3,40.44565281311891,-3.7278198653957086,University,258 - Ciudad Universitaria 1,Avenida de la Complutense (Metro Ciudad Universitaria),-3.72699, 40.44375,231.16684935855008
93,24552,Universidad Complutense de Madrid. Facultad de Comercio y Turismo,AVENIDA FILIPINAS 3,40.43972279736298,-3.7115000631943875,University,245 - Galileo,Calle Galileo nº 63,-3.71019, 40.4364,397.7155378979883
94,24816,Universidad Complutense de Madrid. Facultad de Derecho,PLAZA MENENDEZ PELAYO 4,40.45029942937783,-3.7307676043691123,University,261 - Facultad Derecho,Avenida Complutense nº 23,-3.72937, 40.45109,179.03420398868127
95,25080,Universidad Complutense de Madrid. Facultad de Educación - Centro de Formación del Profesorado,CALLE RECTOR ROYO-VILLANOVA 1,40.45009595969183,-3.7173415690104594,University,256 - Reina Victoria,Calle Beatriz de Bobadilla frente al nº 2,-3.71383, 40.44635,572.1359874108045
96,25344,"Universidad Complutense de Madrid. Facultad de Enfermería, Fisioterapia y Podología",PLAZA RAMON Y CAJAL 3,40.44388989111186,-3.725275188293443,University,259 - Ciudad Universitaria 2,Avenida de la Complutense (Metro Ciudad Universitaria),-3.72693, 40.44342,191.87081122652899
97,25608,Universidad Complutense de Madrid. Facultad de Estudios Estadísticos,AVENIDA PUERTA DE HIERRO ,40.44710921445564,-3.736030211293149,University,261 - Facultad Derecho,Avenida Complutense nº 23,-3.72937, 40.45109,865.1026490480889
98,25872,Universidad Complutense de Madrid. Facultad de Farmacia,PLAZA RAMÓN Y CAJAL ,40.445377687821406,-3.726162822313488,University,258 - Ciudad Universitaria 1,Avenida de la Complutense (Metro Ciudad Universitaria),-3.72699, 40.44375,203.33696452360118
99,26136,Universidad Complutense de Madrid. Facultad de Filología,PLAZA MENÉNDEZ PELAYO ,40.44902725572588,-3.7299122889709473,University,261 - Facultad Derecho,Avenida Complutense nº 23,-3.72937, 40.45109,237.45887475654072
100,26400,Universidad Complutense de Madrid. Facultad de Filosofía,PLAZA MENÉNDEZ PELAYO ,40.44898643338138,-3.7304165442551764,University,261 - Facultad Derecho,Avenida Complutense nº 23,-3.72937, 40.45109,261.65769065231615
101,26664,Universidad Complutense de Madrid. Facultad de Geografía e Historia,CALLE PROFESOR ARANGUREN  CIUDAD UNIVERSITARIA,40.44950567301685,-3.7338667546817264,University,261 - Facultad Derecho,Avenida Complutense nº 23,-3.72937, 40.45109,531.7403630183696
102,26928,Universidad Complutense de Madrid. Facultad de Informática,CALLE PROFESOR JOSE GARCIA SANTESMASES 9,40.453077067733574,-3.733826683733914,University,261 - Facultad Derecho,Avenida Complutense nº 23,-3.72937, 40.45109,544.1571422631338
103,27192,Universidad Complutense de Madrid. Facultad de Medicina,PLAZA RAMÓN Y CAJAL ,40.44405495942567,-3.724220903045646,University,259 - Ciudad Universitaria 2,Avenida de la Complutense (Metro Ciudad Universitaria),-3.72693, 40.44342,310.3698019206379
104,27456,Universidad Complutense de Madrid. Facultad de Odontología,PLAZA RAMON Y CAJAL ,40.44388989111186,-3.725275188293443,University,259 - Ciudad Universitaria 2,Avenida de la Complutense (Metro Ciudad Universitaria),-3.72693, 40.44342,191.87081122652899
105,27720,Universidad Complutense de Madrid. Facultad de Veterinaria,AVENIDA PUERTA DE HIERRO  sin número,40.44959367195723,-3.7383172430653935,University,261 - Facultad Derecho,Avenida Complutense nº 23,-3.72937, 40.45109,1011.9247556661953
106,27984,Universidad Complutense de Madrid. Facultad de Óptica y Optometría,CALLE ARCOS DE JALON 118,40.42597819309277,-3.6140011950615656,University,215 - Gutierre de Cetina,Calle Gutierre de Cetina nº 77,-3.640994, 40.429706,3039.320671528878
107,28248,Universidad Complutense. Hospital Clínico Veterinario,AVENIDA PUERTA DE HIERRO  FACULTAD DE VETERINARIA,40.45021458286808,-3.7400222312945473,University,261 - Facultad Derecho,Avenida Complutense nº 23,-3.72937, 40.45109,1192.3136806982193
108,28512,Universidad Nacional de Educación a Distancia (UNED). Centro Asociado Madrid - Escuelas Pías,CALLE TRIBULETE 14,40.4077959539866,-3.7025893902054015,University,53 - Plaza de Lavapiés,Calle Valencia nº 1,-3.7007111, 40.4083061,217.08698296045156
109,28776,Universidad Nacional de Educación a Distancia (UNED). Centro Asociado Madrid - Gregorio Marañón,CALLE ARGUMOSA 3,40.408447184626155,-3.7001742404603184,University,53 - Plaza de Lavapiés,Calle Valencia nº 1,-3.7007111, 40.4083061,61.912915250648204
110,29040,Universidad Nacional de Educación a Distancia (UNED). Centro Asociado Madrid - Jacinto Verdaguer,CALLE FUENTE DE LIMA 22,40.38278645640315,-3.7824021083869606,University,224 - Caramuel,Calle Caramuel nº 51,-3.728533714316331, 40.40913630273305,6687.162018854008
111,29304,Universidad Nacional de Educación a Distancia (UNED). Centro Asociado Madrid - Las Tablas,AVENIDA SANTO DOMINGO DE LA CALZADA 9,40.504821065488,-3.6658596724706185,University,249 - Manuel Caldeiro,Paseo de la Castellana nº 298,-3.68532, 40.47938,3568.3322709099725
112,29568,Universidad Nacional de Educación a Distancia (UNED). Centro Universitario de Idiomas a Distancia (CUID),AVENIDA SANTO DOMINGO DE LA CALZADA 9 PLANTA segunda,40.504821065488,-3.6658596724706185,University,249 - Manuel Caldeiro,Paseo de la Castellana nº 298,-3.68532, 40.47938,3568.3322709099725
113,29832,Universidad Politécnica de Madrid. Escuela Politécnica de Enseñanza Superior,PASEO JUAN XXIII 11,40.44793793568313,-3.717285250885199,University,256 - Reina Victoria,Calle Beatriz de Bobadilla frente al nº 2,-3.71383, 40.44635,424.0475792147653
114,30096,Universidad Politécnica de Madrid. Escuela Técnica Superior de Arquitectura,AVENIDA JUAN DE HERRERA 4,40.43959650623064,-3.731162126785864,University,257 - INEF,Avenida Juan de Herrera frente a la calle Paul Guinard,-3.72997, 40.43896,150.6868101017417
115,30360,Universidad Politécnica de Madrid. Escuela Técnica Superior de Edificación,CALLE JUAN DE HERRERA 6,40.41579557216152,-3.7115700876766438,University,36 - Plaza Ramales,Plaza de Ramales,-3.71183, 40.4168,115.51048037172446
116,30624,Universidad Politécnica de Madrid. Escuela Técnica Superior de Ingenieros Industriales,CALLE JOSE GUTIERREZ ABASCAL 2,40.44042600324054,-3.690212174964136,University,139 - José Gutiérrez Abascal ,Calle José Gutiérrez Abascal nº 2,-3.6907784, 40.4396792,104.40674648034292
117,30888,Universidad Politécnica de Madrid. Escuela Técnica Superior de Ingenieros Navales,AVENIDA MEMORIA 4,40.4388050819418,-3.724433976834532,University,259 - Ciudad Universitaria 2,Avenida de la Complutense (Metro Ciudad Universitaria),-3.72693, 40.44342,584.3373911881245
118,31152,"Universidad Politécnica de Madrid. Escuela Técnica Superior de Ingenieros de Caminos, Canales y Puertos",CALLE PROFESOR ARANGUREN 3,40.448738163014994,-3.7332871485158043,University,261 - Facultad Derecho,Avenida Complutense nº 23,-3.72937, 40.45109,509.4061914410407
119,31416,"Universidad Politécnica de Madrid. Escuela Técnica Superior de Ingenieros de Caminos, Canales y Puertos. Edificio Retiro",CALLE ALFONSO XII 3 y 5,40.4094661942901,-3.688412783499902,University,69 - Puerta del Ángel Caído,Avenida de Alfonso XII nº 54,-3.688822, 40.409808,59.42680841643556
120,31680,Universidad Politécnica de Madrid. Escuela Técnica Superior de Ingenieros de Minas y Energía,CALLE RIOS ROSAS 21,40.44209227424258,-3.7003734646151534,University,130 - Santa Engracia 127,Calle Santa Engracia nº 127,-3.70164, 40.44156,153.2065017424289
121,31944,Universidad Politécnica de Madrid. Escuela Técnica Superior de Ingenieros de Telecomunicación,AVENIDA COMPLUTENSE 30,40.453018384890925,-3.726745005476224,University,261 - Facultad Derecho,Avenida Complutense nº 23,-3.72937, 40.45109,363.087931496295
122,32208,"Universidad Politécnica de Madrid. Escuela Técnica Superior de Ingenieros en Topografía, Geodesia y Cartografía","CALLE ARBOLEDA  CARRETERA DE VALENCIA, KM 7",40.389417936054436,-3.630038674026004,University,221 - Pavones,Calle Hacienda de Pavones nº 342,-3.634587, 40.400368,1320.3192527623619
123,32472,Universidad Politécnica de Madrid. Escuela Técnica Superior de Ingeniería Aeronáutica y del Espacio,PLAZA CARDENAL CISNEROS 3,40.44098319331987,-3.7246487290907204,University,259 - Ciudad Universitaria 2,Avenida de la Complutense (Metro Ciudad Universitaria),-3.72693, 40.44342,371.9519220958758
124,32736,"Universidad Politécnica de Madrid. Escuela Técnica Superior de Ingeniería Agronómica, Alimentaria y de Biosistemas",AVENIDA PUERTA DE HIERRO 2 y 4,40.440899945359334,-3.728076234171524,University,257 - INEF,Avenida Juan de Herrera frente a la calle Paul Guinard,-3.72997, 40.43896,302.1041863410425
125,33000,"Universidad Politécnica de Madrid. Escuela Técnica Superior de Ingeniería de Montes, Forestal y del Medio Natural",CALLE JOSE ANTONIO NOVAIS 10,40.448485414321894,-3.724507841206364,University,260 - Facultad Biología,Calle José Antonio Novais frente al nº 12,-3.7272945, 40.4483322,311.33403425060857
126,33264,Universidad Politécnica de Madrid. Escuela Técnica Superior de Ingeniería de Sistemas Informáticos,AUTOVIA ALANG TURING ,40.39025571650973,-3.6279790241704797,University,221 - Pavones,Calle Hacienda de Pavones nº 342,-3.634587, 40.400368,1345.53672060971
127,33528,Universidad Politécnica de Madrid. Escuela Técnica Superior de Ingeniería y Diseño Industrial,RONDA VALENCIA 3,40.405420030666505,-3.7005940001153337,University,49 - Casa Encendida,Ronda de Atocha nº 34,-3.6992759, 40.4060941,165.07680574312027
128,33792,Universidad Politécnica de Madrid. Escuela Técnica Superior de Ingeniería y Sistemas de Telecomunicación,CALLE NIKOLA TESLA ,40.38879475945981,-3.629147669595368,University,221 - Pavones,Calle Hacienda de Pavones nº 342,-3.634587, 40.400368,1424.0430728675958
129,34056,Universidad Politécnica de Madrid. Facultad de Ciencias de la Actividad Física y del Deporte (INEF),CALLE MARTIN FIERRO 7,40.4381730352489,-3.7325360017630174,University,257 - INEF,Avenida Juan de Herrera frente a la calle Paul Guinard,-3.72997, 40.43896,299.3579963676627
130,34320,Universidad Pontificia Comillas. Escuela Técnica Superior de Ingeniería,CALLE ALBERTO AGUILERA 25,40.43012986083875,-3.7126929434719336,University,57 - Santa Cruz del Marcenado,Calle Santa Cruz del Marcenado nº 24,-3.7126299, 40.4295658,63.183578338540975
131,34584,Universidad Pontificia Comillas. Facultad de Ciencias Humanas y Sociales,CALLE UNIVERSIDAD DE COMILLAS 3 y 5,40.552125920224775,-3.682802161256006,University,217 - Pedro Rico,Calle Pedro Rico nº 4,-3.688463, 40.481086,7933.299181541679
132,34848,Universidad Pontificia Comillas. Facultad de Derecho Canónico,CALLE ALBERTO AGUILERA 23,40.42997959570519,-3.711258490151281,University,57 - Santa Cruz del Marcenado,Calle Santa Cruz del Marcenado nº 24,-3.7126299, 40.4295658,159.7699552780974
133,35112,Universidad Pontificia Comillas. Facultad de Teología,CALLE UNIVERSIDAD DE COMILLAS 3 y 5,40.552125920224775,-3.682802161256006,University,217 - Pedro Rico,Calle Pedro Rico nº 4,-3.688463, 40.481086,7933.299181541679
134,35376,Universidad Pontificia de Comillas. Facultad de Ciencias Económicas y Empresariales,CALLE ALBERTO AGUILERA 23,40.42997959570519,-3.711258490151281,University,57 - Santa Cruz del Marcenado,Calle Santa Cruz del Marcenado nº 24,-3.7126299, 40.4295658,159.7699552780974
135,35640,Universidad Pontificia de Comillas. Facultad de Derecho,CALLE ALBERTO AGUILERA 23,40.42997959570519,-3.711258490151281,University,57 - Santa Cruz del Marcenado,Calle Santa Cruz del Marcenado nº 24,-3.7126299, 40.4295658,159.7699552780974
136,35904,Universidad Pontificia de Salamanca. Facultad de Enfermería y Fisioterapia,CALLE GAZTAMBIDE 12,40.4320681305,-3.7155984461035705,University,199 - Fernando el Católico,Calle Fernando el Católico nº 61,-3.7149166, 40.4343611,266.34414852121387
